CTC2_L_00198016-03
1 13326U 26745BQ  26070.40844907  .00000000  00000+0  00000-0 0  9999
2 13326  80.0000 180.0000 0000000   0.0000   0.0000 14.70334635    11
CTC2_L_00198016-04
1 13327U 26964XA  26070.40844907  .00000000  00000+0  00000-0 0  9993
2 13327  80.0000 180.0000 0000000   0.0000  90.0000 14.70334635    11
CTC2_L_00198017-01
1 13328U 25140XA  26070.40844907  .00000000  00000+0  00000-0 0  9999
2 13328  80.0000 192.0000 0000000   0.0000 192.0000 14.70334635    18
CTC2_L_00198017-02
1 13329U 26483ZR  26070.40844907  .00000000  00000+0  00000-0 0  9991
2 13329  80.0000 192.0000 0000000   0.0000 282.0000 14.70334635    19
CTC2_L_00198017-03
1 13330U 26400MA  26070.40844907  .00000000  00000+0  00000-0 0  9992
2 13330  80.0000 192.0000 0000000   0.0000  12.0000 14.70334635    12
CTC2_L_00198017-04
1 13331U 26956LF  26070.40844907  .00000000  00000+0  00000-0 0  9999
2 13331  80.0000 192.0000 0000000   0.0000 102.0000 14.70334635    13
CTC2_L_00198018-01
1 13332U 22895IL  26070.40844907  .00000000  00000+0  00000-0 0  9998
2 13332  80.0000 204.0000 0000000   0.0000 204.0000 14.70334635    11
CTC2_L_00198018-02
1 13333U 23924WS  26070.40844907  .00000000  00000+0  00000-0 0  9993
2 13333  80.0000 204.0000 0000000   0.0000 294.0000 14.70334635    11
CTC2_L_00198018-03
1 13334U 22008TL  26070.40844907  .00000000  00000+0  00000-0 0  9996
2 13334  80.0000 204.0000 0000000   0.0000  24.0000 14.70334635    13
CTC2_L_00198018-04
1 13335U 26676ZK  26070.40844907  .00000000  00000+0  00000-0 0  9992
2 13335  80.0000 204.0000 0000000   0.0000 114.0000 14.70334635    14
CTC2_L_00198019-01
1 13336U 26570GF  26070.40844907  .00000000  00000+0  00000-0 0  9996
2 13336  80.0000 216.0000 0000000   0.0000 216.0000 14.70334635    11
CTC2_L_00198019-02
1 13337U 24084ZM  26070.40844907  .00000000  00000+0  00000-0 0  9995
2 13337  80.0000 216.0000 0000000   0.0000 306.0000 14.70334635    12
CTC2_L_00198019-03
1 13338U 26689LI  26070.40844907  .00000000  00000+0  00000-0 0  9999
2 13338  80.0000 216.0000 0000000   0.0000  36.0000 14.70334635    13
CTC2_L_00198019-04
1 13339U 22680NW  26070.40844907  .00000000  00000+0  00000-0 0  9997
2 13339  80.0000 216.0000 0000000   0.0000 126.0000 14.70334635    14
CTC2_L_00198020-01
1 13340U 23585UQ  26070.40844907  .00000000  00000+0  00000-0 0  9994
2 13340  80.0000 228.0000 0000000   0.0000 228.0000 14.70334635    12
CTC2_L_00198020-02
1 13341U 26211RT  26070.40844907  .00000000  00000+0  00000-0 0  9994
2 13341  80.0000 228.0000 0000000   0.0000 318.0000 14.70334635    13
CTC2_L_00198020-03
1 13342U 26766IV  26070.40844907  .00000000  00000+0  00000-0 0  9990
2 13342  80.0000 228.0000 0000000   0.0000  48.0000 14.70334635    14
CTC2_L_00198020-04
1 13343U 25473JD  26070.40844907  .00000000  00000+0  00000-0 0  9995
2 13343  80.0000 228.0000 0000000   0.0000 138.0000 14.70334635    15
CTC2_L_00198021-01
1 13344U 25763YM  26070.40844907  .00000000  00000+0  00000-0 0  9998
2 13344  80.0000 240.0000 0000000   0.0000 240.0000 14.70334635    14
CTC2_L_00198021-02
1 13345U 24444DX  26070.40844907  .00000000  00000+0  00000-0 0  9994
2 13345  80.0000 240.0000 0000000   0.0000 330.0000 14.70334635    15
CTC2_L_00198021-03
1 13346U 22984KE  26070.40844907  .00000000  00000+0  00000-0 0  9992
2 13346  80.0000 240.0000 0000000   0.0000  60.0000 14.70334635    16
CTC2_L_00198021-04
1 13347U 26676PQ  26070.40844907  .00000000  00000+0  00000-0 0  9995
2 13347  80.0000 240.0000 0000000   0.0000 150.0000 14.70334635    17
CTC2_L_00198022-01
1 13348U 26433NU  26070.40844907  .00000000  00000+0  00000-0 0  9997
2 13348  80.0000 252.0000 0000000   0.0000 252.0000 14.70334635    14
CTC2_L_00198022-02
1 13349U 23832EF  26070.40844907  .00000000  00000+0  00000-0 0  9998
2 13349  80.0000 252.0000 0000000   0.0000 342.0000 14.70334635    15
CTC2_L_00198022-03
1 13350U 22206SL  26070.40844907  .00000000  00000+0  00000-0 0  9994
2 13350  80.0000 252.0000 0000000   0.0000  72.0000 14.70334635    17
CTC2_L_00198022-04
1 13351U 25376PM  26070.40844907  .00000000  00000+0  00000-0 0  9996
2 13351  80.0000 252.0000 0000000   0.0000 162.0000 14.70334635    18
CTC2_L_00198023-01
1 13352U 22765KZ  26070.40844907  .00000000  00000+0  00000-0 0  9996
2 13352  80.0000 264.0000 0000000   0.0000 264.0000 14.70334635    15
CTC2_L_00198023-02
1 13353U 26186RE  26070.40844907  .00000000  00000+0  00000-0 0  9998
2 13353  80.0000 264.0000 0000000   0.0000 354.0000 14.70334635    16
CTC2_L_00198023-03
1 13354U 22833DF  26070.40844907  .00000000  00000+0  00000-0 0  9994
2 13354  80.0000 264.0000 0000000   0.0000  84.0000 14.70334635    17
CTC2_L_00198023-04
1 13355U 23219XU  26070.40844907  .00000000  00000+0  00000-0 0  9994
2 13355  80.0000 264.0000 0000000   0.0000 174.0000 14.70334635    18
CTC2_L_00198024-01
1 13356U 23612FY  26070.40844907  .00000000  00000+0  00000-0 0  9992
2 13356  80.0000 276.0000 0000000   0.0000 276.0000 14.70334635    15
CTC2_L_00198024-02
1 13357U 25483HK  26070.40844907  .00000000  00000+0  00000-0 0  9991
2 13357  80.0000 276.0000 0000000   0.0000   6.0000 14.70334635    17
CTC2_L_00198024-03
1 13358U 26164DA  26070.40844907  .00000000  00000+0  00000-0 0  9999
2 13358  80.0000 276.0000 0000000   0.0000  96.0000 14.70334635    17
CTC2_L_00198024-04
1 13359U 26110EC  26070.40844907  .00000000  00000+0  00000-0 0  9991
2 13359  80.0000 276.0000 0000000   0.0000 186.0000 14.70334635    18
CTC2_L_00198025-01
1 13360U 26953TN  26070.40844907  .00000000  00000+0  00000-0 0  9998
2 13360  80.0000 288.0000 0000000   0.0000 288.0000 14.70334635    16
CTC2_L_00198025-02
1 13361U 22068XE  26070.40844907  .00000000  00000+0  00000-0 0  9992
2 13361  80.0000 288.0000 0000000   0.0000  18.0000 14.70334635    18
CTC2_L_00198025-03
1 13362U 26477YA  26070.40844907  .00000000  00000+0  00000-0 0  9991
2 13362  80.0000 288.0000 0000000   0.0000 108.0000 14.70334635    19
CTC2_L_00198025-04
1 13363U 22577RV  26070.40844907  .00000000  00000+0  00000-0 0  9999
2 13363  80.0000 288.0000 0000000   0.0000 198.0000 14.70334635    19
CTC2_L_00198026-01
1 13364U 22425F   26070.40844907  .00000000  00000+0  00000-0 0  9992
2 13364  80.0000 300.0000 0000000   0.0000 300.0000 14.70334635    10
CTC2_L_00198026-02
1 13365U 24709BI  26070.40844907  .00000000  00000+0  00000-0 0  9990
2 13365  80.0000 300.0000 0000000   0.0000  30.0000 14.70334635    11
CTC2_L_00198026-03
1 13366U 24907DE  26070.40844907  .00000000  00000+0  00000-0 0  9991
2 13366  80.0000 300.0000 0000000   0.0000 120.0000 14.70334635    12
CTC2_L_00198026-04
1 13367U 23978XZ  26070.40844907  .00000000  00000+0  00000-0 0  9999
2 13367  80.0000 300.0000 0000000   0.0000 210.0000 14.70334635    13
CTC2_L_00198027-01
1 13368U 22777NF  26070.40844907  .00000000  00000+0  00000-0 0  9996
2 13368  80.0000 312.0000 0000000   0.0000 312.0000 14.70334635    10
CTC2_L_00198027-02
1 13369U 25999XK  26070.40844907  .00000000  00000+0  00000-0 0  9996
2 13369  80.0000 312.0000 0000000   0.0000  42.0000 14.70334635    11
CTC2_L_00198027-03
1 13370U 22006NM  26070.40844907  .00000000  00000+0  00000-0 0  9994
2 13370  80.0000 312.0000 0000000   0.0000 132.0000 14.70334635    13
CTC2_L_00198027-04
1 13371U 22316DN  26070.40844907  .00000000  00000+0  00000-0 0  9999
2 13371  80.0000 312.0000 0000000   0.0000 222.0000 14.70334635    14
CTC2_L_00198028-01
1 13372U 24336VL  26070.40844907  .00000000  00000+0  00000-0 0  9994
2 13372  80.0000 324.0000 0000000   0.0000 324.0000 14.70334635    11
CTC2_L_00198028-02
1 13373U 24563TP  26070.40844907  .00000000  00000+0  00000-0 0  9997
2 13373  80.0000 324.0000 0000000   0.0000  54.0000 14.70334635    12
CTC2_L_00198028-03
1 13374U 24720OY  26070.40844907  .00000000  00000+0  00000-0 0  9993
2 13374  80.0000 324.0000 0000000   0.0000 144.0000 14.70334635    13
CTC2_L_00198028-04
1 13375U 23952GK  26070.40844907  .00000000  00000+0  00000-0 0  9990
2 13375  80.0000 324.0000 0000000   0.0000 234.0000 14.70334635    14
CTC2_L_00198029-01
1 13376U 23097TQ  26070.40844907  .00000000  00000+0  00000-0 0  9991
2 13376  80.0000 336.0000 0000000   0.0000 336.0000 14.70334635    11
CTC2_L_00198029-02
1 13377U 25336BR  26070.40844907  .00000000  00000+0  00000-0 0  9990
2 13377  80.0000 336.0000 0000000   0.0000  66.0000 14.70334635    12
CTC2_L_00198029-03
1 13378U 25730SS  26070.40844907  .00000000  00000+0  00000-0 0  9999
2 13378  80.0000 336.0000 0000000   0.0000 156.0000 14.70334635    13
CTC2_L_00198029-04
1 13379U 25003NQ  26070.40844907  .00000000  00000+0  00000-0 0  9993
2 13379  80.0000 336.0000 0000000   0.0000 246.0000 14.70334635    14
CTC2_L_00198030-01
1 13380U 24449O   26070.40844907  .00000000  00000+0  00000-0 0  9998
2 13380  80.0000 348.0000 0000000   0.0000 348.0000 14.70334635    12
CTC2_L_00198030-02
1 13381U 23621HJ  26070.40844907  .00000000  00000+0  00000-0 0  9990
2 13381  80.0000 348.0000 0000000   0.0000  78.0000 14.70334635    13
CTC2_L_00198030-03
1 13382U 24941JC  26070.40844907  .00000000  00000+0  00000-0 0  9997
2 13382  80.0000 348.0000 0000000   0.0000 168.0000 14.70334635    14
CTC2_L_00198030-04
1 13383U 23826KH  26070.40844907  .00000000  00000+0  00000-0 0  9999
2 13383  80.0000 348.0000 0000000   0.0000 258.0000 14.70334635    15
